{
  "norad_id": 68408,
  "name": "2026-065A",
  "history": [
    {
      "epoch": "2026-03-28T22:34:26.975136Z",
      "apogee_km": 522.1377127015485,
      "perigee_km": 500.35486062577456,
      "latitude_deg": -4.6820133647992124e-05,
      "longitude_deg": 165.1438859159067,
      "height_km": 511.1354482458239,
      "semi_major_axis_km": 6889.383286663661,
      "eccentricity": 0.0015809,
      "inclination_deg": 97.4112,
      "raan_deg": 330.1101,
      "arg_perigee_deg": 287.1112,
      "mean_anomaly_deg": 72.839,
      "mean_motion_rev_day": 15.18211376
    }
  ]
}